$$SOE
2460721.500000000, A.D. 2025-Feb-15 00:00:00.0000, -1.997265493471484E+08, 3.987754353592220E+08, 1.655117770479003E+07,
2460728.500000000, A.D. 2025-Feb-22 00:00:00.0000, -2.087818436386947E+08, 3.940365926950248E+08, 1.691539874051797E+07,
2460735.500000000, A.D. 2025-Mar-01 00:00:00.0000, -2.177229633833503E+08, 3.890825768616551E+08, 1.727037064236692E+07,
2460742.500000000, A.D. 2025-Mar-08 00:00:00.0000, -2.265449769614303E+08, 3.839160052580116E+08, 1.761589560607368E+07,
2460749.500000000, A.D. 2025-Mar-15 00:00:00.0000, -2.352430049144282E+08, 3.785396022442465E+08, 1.795178022753909E+07,
2460756.500000000, A.D. 2025-Mar-22 00:00:00.0000, -2.438122240279763E+08, 3.729561987718607E+08, 1.827783582372703E+07,
2460763.500000000, A.D. 2025-Mar-29 00:00:00.0000, -2.522478700498909E+08, 3.671687297469610E+08, 1.859387844495952E+07,
2460770.500000000, A.D. 2025-Apr-05 00:00:00.0000, -2.605452387197727E+08, 3.611802322631019E+08, 1.889972880504271E+07,
2460777.500000000, A.D. 2025-Apr-12 00:00:00.0000, -2.686996870376837E+08, 3.549938448087726E+08, 1.919521231398983E+07,
2460784.500000000, A.D. 2025-Apr-19 00:00:00.0000, -2.767066349586909E+08, 3.486128065676482E+08, 1.948015915812421E+07,
2460791.500000000, A.D. 2025-Apr-26 00:00:00.0000, -2.845615672415565E+08, 3.420404566066806E+08, 1.975440438578020E+07,
2460798.500000000, A.D. 2025-May-03 00:00:00.0000, -2.922600353384536E+08, 3.352802329694714E+08, 2.001778798952706E+07,
2460805.500000000, A.D. 2025-May-10 00:00:00.0000, -2.997976592978237E+08, 3.283356716821576E+08, 2.027015498282793E+07,
2460812.500000000, A.D. 2025-May-17 00:00:00.0000, -3.071701296442758E+08, 3.212104056294554E+08, 2.051135546427968E+07,
2460819.500000000, A.D. 2025-May-24 00:00:00.0000, -3.143732090620839E+08, 3.139081632450060E+08, 2.074124464894283E+07,
2460826.500000000, A.D. 2025-May-31 00:00:00.0000, -3.214027334648879E+08, 3.064327673253680E+08, 2.095968285380369E+07,
2460833.500000000, A.D. 2025-Jun-07 00:00:00.0000, -3.282546128534433E+08, 2.987881351707717E+08, 2.116653557257661E+07,
2460840.500000000, A.D. 2025-Jun-14 00:00:00.0000, -3.349248343277549E+08, 2.909782793853877E+08, 2.136167380220507E+07,
2460847.500000000, A.D. 2025-Jun-21 00:00:00.0000, -3.414094660363665E+08, 2.830073060659600E+08, 2.154497424210520E+07,
2460854.500000000, A.D. 2025-Jun-28 00:00:00.0000, -3.477046589319965E+08, 2.748794121400850E+08, 2.171631922349127E+07,
2460861.500000000, A.D. 2025-Jul-05 00:00:00.0000, -3.538066478513191E+08, 2.665988840070543E+08, 2.187559668415979E+07,
2460868.500000000, A.D. 2025-Jul-12 00:00:00.0000, -3.597117531118214E+08, 2.581700966755571E+08, 2.202270023215604E+07,
2460875.500000000, A.D. 2025-Jul-19 00:00:00.0000, -3.654163824359269E+08, 2.495975128225221E+08, 2.215752923396899E+07,
2460882.500000000, A.D. 2025-Jul-26 00:00:00.0000, -3.709170329916869E+08, 2.408856817147359E+08, 2.227998890342897E+07,
2460889.500000000, A.D. 2025-Aug-02 00:00:00.0000, -3.762102934841431E+08, 2.320392380128629E+08, 2.238999038714793E+07,
2460896.500000000, A.D. 2025-Aug-09 00:00:00.0000, -3.812928462735219E+08, 2.230629004413561E+08, 2.248745084325115E+07,
2460903.500000000, A.D. 2025-Aug-16 00:00:00.0000, -3.861614694428007E+08, 2.139614702592438E+08, 2.257229350129414E+07,
2460910.500000000, A.D. 2025-Aug-23 00:00:00.0000, -3.908130385212876E+08, 2.047398295464136E+08, 2.264444767802180E+07,
2460917.500000000, A.D. 2025-Aug-30 00:00:00.0000, -3.952445275343667E+08, 1.954029400172415E+08, 2.270384877731104E+07,
2460924.500000000, A.D. 2025-Sep-06 00:00:00.0000, -3.994530107973555E+08, 1.859558433593685E+08, 2.275043848627460E+07,
2460931.500000000, A.D. 2025-Sep-13 00:00:00.0000, -4.034356671254510E+08, 1.764036606134720E+08, 2.278416511804175E+07,
2460938.500000000, A.D. 2025-Sep-20 00:00:00.0000, -4.071897831856308E+08, 1.667515889494865E+08, 2.280498366684765E+07,
2460945.500000000, A.D. 2025-Sep-27 00:00:00.0000, -4.107127549283097E+08, 1.570048989481947E+08, 2.281285573279746E+07,
2460952.500000000, A.D. 2025-Oct-04 00:00:00.0000, -4.140020891148264E+08, 1.471689329239631E+08, 2.280774954537323E+07,
2460959.500000000, A.D. 2025-Oct-11 00:00:00.0000, -4.170554053151020E+08, 1.372491033448489E+08, 2.278964004287962E+07,
2460966.500000000, A.D. 2025-Oct-18 00:00:00.0000, -4.198704380899539E+08, 1.272508910757543E+08, 2.275850895931123E+07,
2460973.500000000, A.D. 2025-Oct-25 00:00:00.0000, -4.224450392145414E+08, 1.171798434546854E+08, 2.271434490653247E+07,
2460980.500000000, A.D. 2025-Nov-01 00:00:00.0000, -4.247771798988294E+08, 1.070415722152462E+08, 2.265714344908240E+07,
2460987.500000000, A.D. 2025-Nov-08 00:00:00.0000, -4.268649529666308E+08, 9.684175122038537E+07, 2.258690716549100E+07,
2460994.500000000, A.D. 2025-Nov-15 00:00:00.0000, -4.287065748433986E+08, 8.658611394506983E+07, 2.250364567742110E+07,
2461001.500000000, A.D. 2025-Nov-22 00:00:00.0000, -4.303003869496958E+08, 7.628045092527258E+07, 2.240737562741118E+07,
2461008.500000000, A.D. 2025-Nov-29 00:00:00.0000, -4.316448566533008E+08, 6.593060830687718E+07, 2.229812071175108E+07,
2461015.500000000, A.D. 2025-Dec-06 00:00:00.0000, -4.327385800569579E+08, 5.554248735762866E+07, 2.217591196593563E+07,
2461022.500000000, A.D. 2025-Dec-13 00:00:00.0000, -4.335802861880346E+08, 4.512204157188200E+07, 2.204078798720463E+07,
2461029.500000000, A.D. 2025-Dec-20 00:00:00.0000, -4.341688390938205E+08, 3.467527239250017E+07, 2.189279485721774E+07,
2461036.500000000, A.D. 2025-Dec-27 00:00:00.0000, -4.345032389096820E+08, 2.420822614037920E+07, 2.173198607486104E+07,
2461043.500000000, A.D. 2026-Jan-03 00:00:00.0000, -4.345826233547211E+08, 1.372699153329381E+07, 2.155842258236714E+07,
2461050.500000000, A.D. 2026-Jan-10 00:00:00.0000, -4.344062695429431E+08, 3.237697113619465E+06, 2.137217281897894E+07,
2461057.500000000, A.D. 2026-Jan-17 00:00:00.0000, -4.339735958745381E+08, -7.253491506858887E+06, 2.117331277324847E+07,
2461064.500000000, A.D. 2026-Jan-24 00:00:00.0000, -4.332841639255069E+08, -1.774037456250508E+07, 2.096192602860646E+07,
2461071.500000000, A.D. 2026-Jan-31 00:00:00.0000, -4.323376803080906E+08, -2.821672121742334E+07, 2.073810379936076E+07,
2461078.500000000, A.D. 2026-Feb-07 00:00:00.0000, -4.311339984364415E+08, -3.867627287462890E+07, 2.050194494671257E+07,
2461085.500000000, A.D. 2026-Feb-14 00:00:00.0000, -4.296731199403878E+08, -4.911274672610530E+07, 2.025355595024436E+07,
2461092.500000000, A.D. 2026-Feb-21 00:00:00.0000, -4.279551953353183E+08, -5.951983896655139E+07, 1.999305084640128E+07,
2461099.500000000, A.D. 2026-Feb-28 00:00:00.0000, -4.259805250281631E+08, -6.989122651739132E+07, 1.972055132758348E+07,
2461106.500000000, A.D. 2026-Mar-07 00:00:00.0000, -4.237495627140287E+08, -8.022056921182181E+07, 1.943618703109562E+07,
2461113.500000000, A.D. 2026-Mar-14 00:00:00.0000, -4.212629183856046E+08, -9.050151477376303E+07, 1.914009557264081E+07,
2461120.500000000, A.D. 2026-Mar-21 00:00:00.0000, -4.185213591684642E+08, -1.007277036906329E+08, 1.883242239770450E+07,
2461127.500000000, A.D. 2026-Mar-28 00:00:00.0000, -4.155258099843853E+08, -1.108927729492956E+08, 1.851332071905702E+07,
2461134.500000000, A.D. 2026-Apr-04 00:00:00.0000, -4.122773546394581E+08, -1.209903596005225E+08, 1.818295151651416E+07,
2461141.500000000, A.D. 2026-Apr-11 00:00:00.0000, -4.087772370577442E+08, -1.310141045117481E+08, 1.784148354416112E+07,
2461148.500000000, A.D. 2026-Apr-18 00:00:00.0000, -4.050268624959019E+08, -1.409576563138656E+08, 1.748909332977003E+07,
2461155.500000000, A.D. 2026-Apr-25 00:00:00.0000, -4.010277986869525E+08, -1.508146755262499E+08, 1.712596516337337E+07,
2461162.500000000, A.D. 2026-May-02 00:00:00.0000, -3.967817768764681E+08, -1.605788388887670E+08, 1.675229106976064E+07,
2461169.500000000, A.D. 2026-May-09 00:00:00.0000, -3.922906926211206E+08, -1.702438439660956E+08, 1.636827074809452E+07,
2461176.500000000, A.D. 2026-May-16 00:00:00.0000, -3.875566059667302E+08, -1.798034138845735E+08, 1.597411145532371E+07,
2461183.500000000, A.D. 2026-May-23 00:00:00.0000, -3.825817409490247E+08, -1.892513011768933E+08, 1.557002791215766E+07,
2461190.500000000, A.D. 2026-May-30 00:00:00.0000, -3.773684864901257E+08, -1.985812904124330E+08, 1.515624244814716E+07,
2461197.500000000, A.D. 2026-Jun-06 00:00:00.0000, -3.719193990035446E+08, -2.077872028848550E+08, 1.473298514709040E+07,
2461204.500000000, A.D. 2026-Jun-13 00:00:00.0000, -3.662372030391327E+08, -2.168629031555808E+08, 1.430049367251994E+07,
2461211.500000000, A.D. 2026-Jun-20 00:00:00.0000, -3.603247904654903E+08, -2.258023045219807E+08, 1.385901305815242E+07,
2461218.500000000, A.D. 2026-Jun-27 00:00:00.0000, -3.541852198823019E+08, -2.345993737436701E+08, 1.340879559091763E+07,
2461225.500000000, A.D. 2026-Jul-04 00:00:00.0000, -3.478217162558632E+08, -2.432481357955174E+08, 1.295010072267838E+07,
2461232.500000000, A.D. 2026-Jul-11 00:00:00.0000, -3.412376705170121E+08, -2.517426787732338E+08, 1.248319497597891E+07,
2461239.500000000, A.D. 2026-Jul-18 00:00:00.0000, -3.344366390216790E+08, -2.600771589199206E+08, 1.200835183690526E+07,
2461246.500000000, A.D. 2026-Jul-25 00:00:00.0000, -3.274223428425950E+08, -2.682458057659005E+08, 1.152585163258941E+07,
2461253.500000000, A.D. 2026-Aug-01 00:00:00.0000, -3.201986668385242E+08, -2.762429274262730E+08, 1.103598138462725E+07,
2461260.500000000, A.D. 2026-Aug-08 00:00:00.0000, -3.127696582829589E+08, -2.840629160884852E+08, 1.053903461551400E+07,
2461267.500000000, A.D. 2026-Aug-15 00:00:00.0000, -3.051395246355361E+08, -2.917002532343876E+08, 1.003531110672577E+07,
2461274.500000000, A.D. 2026-Aug-22 00:00:00.0000, -2.973126312151198E+08, -2.991495133681158E+08, 9.525116778011635E+06,
2461281.500000000, A.D. 2026-Aug-29 00:00:00.0000, -2.892935010600513E+08, -3.064053676141251E+08, 9.008763785544336E+06,
2461288.500000000, A.D. 2026-Sep-05 00:00:00.0000, -2.810868148384788E+08, -3.134625900462500E+08, 8.486570408709913E+06,
$$EOE